{
  "type": "FeatureCollection",
  "features": [
    {
      "type": "Feature",
      "properties": {
        "norad_id": 41890,
        "name": "CYGFM07",
        "group": "weather",
        "lat": -28.377628199149367,
        "lon": 32.158218283151356,
        "alt_km": 426.1895963641882,
        "timestamp": "2025-12-03T08:58:45.641372+00:00",
        "meta_object_name": "CYGFM07",
        "meta_object_id": "2016-078G",
        "meta_epoch": "2025-12-02T23:56:33.537696",
        "meta_mean_motion": 15.49389577,
        "meta_eccentricity": 0.0008921,
        "meta_inclination": 34.9471,
        "meta_ra_of_asc_node": 85.2981,
        "meta_arg_of_pericenter": 125.6184,
        "meta_mean_anomaly": 234.537,
        "meta_ephemeris_type": 0,
        "meta_classification_type": "U",
        "meta_norad_cat_id": 41890,
        "meta_element_set_no": 999,
        "meta_rev_at_epoch": 49844,
        "meta_bstar": 0.00049894,
        "meta_mean_motion_dot": 0.00028323,
        "meta_mean_motion_ddot": 0,
        "tle_line1": "1 41890U 16078G   25336.99761039  .00028323  00000+0  49894-3 0  9991",
        "tle_line2": "2 41890  34.9471  85.2981 0008921 125.6184 234.5370 15.49389577498443"
      },
      "geometry": {
        "type": "Point",
        "coordinates": [
          32.158218283151356,
          -28.377628199149367
        ]
      }
    },
    {
      "type": "Feature",
      "properties": {
        "norad_id": 41891,
        "name": "CYGFM03",
        "group": "weather",
        "lat": 20.614748441798472,
        "lon": -127.8561508711306,
        "alt_km": 409.5255366770025,
        "timestamp": "2025-12-03T08:58:45.641392+00:00",
        "meta_object_name": "CYGFM03",
        "meta_object_id": "2016-078H",
        "meta_epoch": "2025-12-03T00:38:16.433376",
        "meta_mean_motion": 15.49294711,
        "meta_eccentricity": 0.0008275,
        "meta_inclination": 34.9423,
        "meta_ra_of_asc_node": 87.0198,
        "meta_arg_of_pericenter": 112.9377,
        "meta_mean_anomaly": 247.2218,
        "meta_ephemeris_type": 0,
        "meta_classification_type": "U",
        "meta_norad_cat_id": 41891,
        "meta_element_set_no": 999,
        "meta_rev_at_epoch": 49842,
        "meta_bstar": 0.00051236,
        "meta_mean_motion_dot": 0.00028985,
        "meta_mean_motion_ddot": 0,
        "tle_line1": "1 41891U 16078H   25337.02657909  .00028985  00000+0  51236-3 0  9994",
        "tle_line2": "2 41891  34.9423  87.0198 0008275 112.9377 247.2218 15.49294711498421"
      },
      "geometry": {
        "type": "Point",
        "coordinates": [
          -127.8561508711306,
          20.614748441798472
        ]
      }
    },
    {
      "type": "Feature",
      "properties": {
        "norad_id": 43010,
        "name": "FENGYUN 3D",
        "group": "weather",
        "lat": 47.24627027723804,
        "lon": -66.31247018630022,
        "alt_km": 822.6263167864336,
        "timestamp": "2025-12-03T08:58:45.641403+00:00",
        "meta_object_name": "FENGYUN 3D",
        "meta_object_id": "2017-072A",
        "meta_epoch": "2025-12-03T05:22:15.443904",
        "meta_mean_motion": 14.19679187,
        "meta_eccentricity": 5.89e-05,
        "meta_inclination": 98.988,
        "meta_ra_of_asc_node": 303.3922,
        "meta_arg_of_pericenter": 222.2746,
        "meta_mean_anomaly": 137.8384,
        "meta_ephemeris_type": 0,
        "meta_classification_type": "U",
        "meta_norad_cat_id": 43010,
        "meta_element_set_no": 999,
        "meta_rev_at_epoch": 41718,
        "meta_bstar": 9.3143e-05,
        "meta_mean_motion_dot": 1.51e-06,
        "meta_mean_motion_ddot": 0,
        "tle_line1": "1 43010U 17072A   25337.22378986  .00000151  00000+0  93143-4 0  9990",
        "tle_line2": "2 43010  98.9880 303.3922 0000589 222.2746 137.8384 14.19679187417189"
      },
      "geometry": {
        "type": "Point",
        "coordinates": [
          -66.31247018630022,
          47.24627027723804
        ]
      }
    },
    {
      "type": "Feature",
      "properties": {
        "norad_id": 43013,
        "name": "NOAA 20 (JPSS-1)",
        "group": "weather",
        "lat": -25.747144780421298,
        "lon": 89.51004283193821,
        "alt_km": 832.9623531787356,
        "timestamp": "2025-12-03T08:58:45.641415+00:00",
        "meta_object_name": "NOAA 20 (JPSS-1)",
        "meta_object_id": "2017-073A",
        "meta_epoch": "2025-12-03T02:56:14.253216",
        "meta_mean_motion": 14.19521491,
        "meta_eccentricity": 0.0002069,
        "meta_inclination": 98.7584,
        "meta_ra_of_asc_node": 273.525,
        "meta_arg_of_pericenter": 100.9514,
        "meta_mean_anomaly": 259.1895,
        "meta_ephemeris_type": 0,
        "meta_classification_type": "U",
        "meta_norad_cat_id": 43013,
        "meta_element_set_no": 999,
        "meta_rev_at_epoch": 41665,
        "meta_bstar": 8.0781e-05,
        "meta_mean_motion_dot": 1.26e-06,
        "meta_mean_motion_ddot": 0,
        "tle_line1": "1 43013U 17073A   25337.12238719  .00000126  00000+0  80781-4 0  9998",
        "tle_line2": "2 43013  98.7584 273.5250 0002069 100.9514 259.1895 14.19521491416653"
      },
      "geometry": {
        "type": "Point",
        "coordinates": [
          89.51004283193821,
          -25.747144780421298
        ]
      }
    },
    {
      "type": "Feature",
      "properties": {
        "norad_id": 43226,
        "name": "GOES 17",
        "group": "weather",
        "lat": 0.21447364854202447,
        "lon": 117.61100220617598,
        "alt_km": 35798.96855310991,
        "timestamp": "2025-12-03T08:58:45.641427+00:00",
        "meta_object_name": "GOES 17",
        "meta_object_id": "2018-022A",
        "meta_epoch": "2025-12-03T03:03:21.970368",
        "meta_mean_motion": 1.00271425,
        "meta_eccentricity": 0.0003404,
        "meta_inclination": 0.4329,
        "meta_ra_of_asc_node": 89.3309,
        "meta_arg_of_pericenter": 181.1685,
        "meta_mean_anomaly": 118.0639,
        "meta_ephemeris_type": 0,
        "meta_classification_type": "U",
        "meta_norad_cat_id": 43226,
        "meta_element_set_no": 999,
        "meta_rev_at_epoch": 2845,
        "meta_bstar": 0,
        "meta_mean_motion_dot": -1.63e-06,
        "meta_mean_motion_ddot": 0,
        "tle_line1": "1 43226U 18022A   25337.12733762 -.00000163  00000+0  00000+0 0  9990",
        "tle_line2": "2 43226   0.4329  89.3309 0003404 181.1685 118.0639  1.00271425 28459"
      },
      "geometry": {
        "type": "Point",
        "coordinates": [
          117.61100220617598,
          0.21447364854202447
        ]
      }
    },
    {
      "type": "Feature",
      "properties": {
        "norad_id": 43491,
        "name": "FENGYUN 2H",
        "group": "weather",
        "lat": -1.0852581860641488,
        "lon": -73.50608695152276,
        "alt_km": 35777.353010790815,
        "timestamp": "2025-12-03T08:58:45.641439+00:00",
        "meta_object_name": "FENGYUN 2H",
        "meta_object_id": "2018-050A",
        "meta_epoch": "2025-12-03T02:08:49.697376",
        "meta_mean_motion": 1.00271438,
        "meta_eccentricity": 0.0002887,
        "meta_inclination": 2.5239,
        "meta_ra_of_asc_node": 81.4356,
        "meta_arg_of_pericenter": 162.214,
        "meta_mean_anomaly": 300.1007,
        "meta_ephemeris_type": 0,
        "meta_classification_type": "U",
        "meta_norad_cat_id": 43491,
        "meta_element_set_no": 999,
        "meta_rev_at_epoch": 2747,
        "meta_bstar": 0,
        "meta_mean_motion_dot": -1.11e-06,
        "meta_mean_motion_ddot": 0,
        "tle_line1": "1 43491U 18050A   25337.08946409 -.00000111  00000+0  00000+0 0  9997",
        "tle_line2": "2 43491   2.5239  81.4356 0002887 162.2140 300.1007  1.00271438 27479"
      },
      "geometry": {
        "type": "Point",
        "coordinates": [
          -73.50608695152276,
          -1.0852581860641488
        ]
      }
    },
    {
      "type": "Feature",
      "properties": {
        "norad_id": 43689,
        "name": "METOP-C",
        "group": "weather",
        "lat": -76.52571278578118,
        "lon": 74.9759710657197,
        "alt_km": 828.4716786879708,
        "timestamp": "2025-12-03T08:58:45.641453+00:00",
        "meta_object_name": "METOP-C",
        "meta_object_id": "2018-087A",
        "meta_epoch": "2025-12-03T02:35:47.196096",
        "meta_mean_motion": 14.21505848,
        "meta_eccentricity": 0.0001714,
        "meta_inclination": 98.6943,
        "meta_ra_of_asc_node": 35.0247,
        "meta_arg_of_pericenter": 57.9721,
        "meta_mean_anomaly": 302.1623,
        "meta_ephemeris_type": 0,
        "meta_classification_type": "U",
        "meta_norad_cat_id": 43689,
        "meta_element_set_no": 999,
        "meta_rev_at_epoch": 36697,
        "meta_bstar": 0.0001127,
        "meta_mean_motion_dot": 2.03e-06,
        "meta_mean_motion_ddot": 0,
        "tle_line1": "1 43689U 18087A   25337.10818514  .00000203  00000+0  11270-3 0  9990",
        "tle_line2": "2 43689  98.6943  35.0247 0001714  57.9721 302.1623 14.21505848366972"
      },
      "geometry": {
        "type": "Point",
        "coordinates": [
          74.9759710657197,
          -76.52571278578118
        ]
      }
    }
  ]
}